0 CZ-4 DEB
1 20797U 90081G   18354.55027167 +.00000141 +00000-0 +97379-4 0  9992
2 20797 098.6492 007.1097 0008513 037.7000 114.5122 14.13668092454787
0 CZ-4 DEB
1 20797U 90081G   18353.96720220 +.00000142 +00000-0 +97805-4 0  9991
2 20797 098.6492 006.5457 0008535 039.2934 027.2236 14.13667844454709
0 CZ-4 DEB
1 20798U 90081H   18353.94541747 +.00000230 +00000-0 +13626-3 0  9991
2 20798 098.6063 004.3949 0007810 249.5698 110.4638 14.16823121456768
0 CZ-4 DEB
1 20798U 90081H   18354.51037945 +.00000240 +00000-0 +14115-3 0  9990
2 20798 098.6063 004.9414 0007818 247.7323 112.3024 14.16823480456841
0 GOES 2 AKM
1 20799U 77048G   18354.32370216 -.00000267 +00000-0 +00000-0 0  9994
2 20799 010.5995 310.5432 0224984 020.1435 155.4755 01.00579577090316
0 GOES 2 AKM
1 20799U 77048G   18353.89269244 -.00000267 +00000-0 +00000-0 0  9993
2 20799 010.6004 310.5486 0224980 020.1266 359.4211 01.00579689090312
0 METEOSAT 4 AKM
1 20800U 89020E   18353.79690729 -.00000136 +00000-0 +00000-0 0  9999
2 20800 013.9423 352.5366 0125589 184.8321 357.9666 01.00427717088716
0 METEOSAT 4 AKM
1 20800U 89020E   18354.29945056 -.00000134 +00000-0 +00000-0 0  9999
2 20800 013.9420 352.5317 0125563 184.8399 179.6555 01.00427714088720
0 GOES 3 AKM
1 20801U 78062D   18354.22451479 -.00000335 +00000-0 +00000-0 0  9991
2 20801 012.7456 317.1875 0116527 008.9021 347.9462 00.99480329019742
0 GOES 3 AKM
1 20801U 78062D   18354.72681993 -.00000341  00000-0  00000+0 0  9998
2 20801  12.7446 317.1814 0116536   8.9241 167.8226  0.99480183103501
0 COSMOS 2100
1 20804U 90083A   18354.51118017 +.00000054 +00000-0 +40891-4 0  9994
2 20804 082.9398 033.2327 0036351 343.7525 125.4389 13.74319983417453
0 SL-8 R/B
1 20805U 90083B   18354.52836858 +.00000116 +00000-0 +10459-3 0  9991
2 20805 082.9363 011.6195 0029323 294.6750 174.7592 13.75863954418945
0 SL-8 R/B
1 20805U 90083B   18353.66174288 +.00000114 +00000-0 +10162-3 0  9996
2 20805 082.9363 012.2632 0029339 297.1930 202.1698 13.75863772418821
0 CRRES DEB (CANISTER)
1 20811U 90065C   18354.43647100 +.00000236 +00000-0 +11489-3 0  9995
2 20811 017.7874 091.3040 6967784 125.1476 320.7282 02.64047537249454
0 METEOR 2-20
1 20826U 90086A   18354.18621544 +.00000006 +00000-0 -78008-5 0  9998
2 20826 082.5250 217.7334 0013857 138.4083 221.8133 13.84234874425971
0 METEOR 2-20
1 20826U 90086A   18353.75251829 +.00000006 +00000-0 -76465-5 0  9990
2 20826 082.5250 218.0789 0013833 139.5265 220.6927 13.84234885425720
0 SL-14 R/B
1 20827U 90086B   18354.24077508 +.00000038 +00000-0 +20425-4 0  9994
2 20827 082.5270 221.4651 0013335 149.9538 210.2390 13.83892056425597
0 SL-14 R/B
1 20827U 90086B   18354.74688044  .00000039  00000-0  21800-4 0  9991
2 20827  82.5270 221.0624 0013364 148.6061 211.5900 13.83892068425877
0 NAVSTAR 21 (USA 64)
1 20830U 90088A   18354.55548638 -.00000014  00000-0  00000+0 0  9998
2 20830  54.5175 104.3201 0020203 242.4477 171.5871  1.87754045201509
0 SMS 2 AKM
1 20835U 75011F   18353.89234351 -.00000030 +00000-0 +00000-0 0  9991
2 20835 010.4567 308.3235 0095663 055.0256 325.6992 00.98585969019600
0 SMS 2 AKM
1 20835U 75011F   18354.39445059 -.00000018 +00000-0 +00000-0 0  9992
2 20835 010.4557 308.3173 0095675 055.0465 143.8905 00.98585875019605
0 SL-12 R/B(2)
1 20836U 74060F   18354.29098866 -.00000342 +00000-0 +00000-0 0  9995
2 20836 008.0704 300.4500 0015054 127.1365 243.8627 01.00239867018571
0 METEOSAT 2 AKM (MAGE 1)
1 20837U 81057F   18354.59474455 +.00000013 +00000-0 +00000-0 0  9999
2 20837 013.3001 325.7773 0070456 137.4862 040.0789 00.99368384092219
0 METEOSAT 2 AKM (MAGE 1)
1 20837U 81057F   18354.65063799  .00000012  00000-0  00000+0 0  9999
2 20837  13.3001 325.7766 0070463 137.4945  60.0677  0.99368449 92200
0 IUS R/B(1)
1 20843U 90090C   18354.50008823 -.00000555 +00000-0 +10160-3 0  9999
2 20843 028.4062 345.7960 6762896 097.6044 337.8725 02.92719106284252
0 CZ-4 DEB
1 20846U 90081J   18354.35219174 +.00000136 +00000-0 +18234-3 0  9992
2 20846 099.0130 130.2636 0202283 145.1892 270.3387 13.66717361407756
0 CZ-4 DEB
1 20846U 90081J   18353.92611065 +.00000136 +00000-0 +18311-3 0  9995
2 20846 099.0130 129.8664 0202276 146.2981 333.9463 13.66717210407691
0 CZ-4 DEB
1 20847U 90081K   18354.39068584 +.00001683 +00000-0 +21574-3 0  9993
2 20847 098.5115 277.9964 0017085 099.9626 260.3515 14.82670753487215
0 CZ-4 DEB
1 20848U 90081L   18354.27427851 -.00000029 +00000-0 +11623-4 0  9996
2 20848 099.0028 231.1336 0215713 227.2782 256.8658 13.75206311410396
0 CZ-4 DEB
1 20848U 90081L   18353.67967134 -.00000028 +00000-0 +12806-4 0  9995
2 20848 099.0028 230.5717 0215714 228.8655 193.1082 13.75206310410314
0 CZ-4 DEB
1 20849U 90081M   18353.75044587 +.00000401 +00000-0 +24128-3 0  9996
2 20849 098.6721 029.0543 0041153 009.8111 350.3856 14.11830864449211
0 CZ-4 DEB
1 20849U 90081M   18354.17566200 +.00000403 +00000-0 +24240-3 0  9991
2 20849 098.6720 029.4654 0041132 008.5922 351.5945 14.11831216449540
0 CZ-4 DEB
1 20850U 90081N   18354.14666506 +.00000050 +00000-0 +36520-4 0  9993
2 20850 098.8151 022.5404 0075064 335.8760 064.4327 14.29242959471881
0 CZ-4 DEB
1 20850U 90081N   18353.94144098 +.00000044 +00000-0 +34404-4 0  9999
2 20850 098.8151 022.3328 0075070 336.4819 088.4907 14.29242867471858
0 CZ-4 DEB
1 20852U 90081Q   18353.94116636 +.00000409 +00000-0 +21623-3 0  9991
2 20852 098.5780 008.5048 0019351 230.4500 129.4967 14.18992304456963
0 CZ-4 DEB
1 20852U 90081Q   18354.50526616 +.00000411 +00000-0 +21690-3 0  9994
2 20852 098.5780 009.0508 0019364 228.7910 131.1598 14.18992841457045
0 CZ-4 DEB
1 20853U 90081R   18354.55889924 +.00000620 +00000-0 +22008-3 0  9990
2 20853 098.3565 031.7228 0022326 314.8176 210.2831 14.37661539463212
0 CZ-4 DEB
1 20853U 90081R   18353.91055638 +.00000621 +00000-0 +22032-3 0  9994
2 20853 098.3566 031.0925 0022338 316.8557 094.6364 14.37660662463129
0 CZ-4 DEB
1 20855U 90081T   18353.93772788 +.00000095 +00000-0 +80181-4 0  9995
2 20855 098.7498 016.6079 0023253 309.8346 111.9493 14.08658422454038
0 CZ-4 DEB
1 20855U 90081T   18354.59635235 +.00000086 +00000-0 +74604-4 0  9996
2 20855 098.7498 017.2470 0023222 307.9061 212.0152 14.08658544454129
0 CZ-4 DEB
1 20858U 90081W   18354.26119626 +.00000446 +00000-0 +14874-3 0  9996
2 20858 098.5089 021.8538 0038158 123.8439 012.3738 14.41794041470376
0 CZ-4 DEB
1 20858U 90081W   18353.96924110 +.00000436 +00000-0 +14566-3 0  9991
2 20858 098.5089 021.5629 0038160 124.7011 297.0118 14.41793685470336
0 CZ-4 DEB
1 20861U 90081Z   18353.74146935 +.00000763 +00000-0 +20741-3 0  9997
2 20861 098.2720 046.0871 0014542 302.5073 176.0690 14.50190946473810
0 CZ-4 DEB
1 20861U 90081Z   18354.20960552 +.00000772 +00000-0 +20962-3 0  9993
2 20861 098.2720 046.5468 0014560 300.9565 100.1791 14.50191754473880
0 CZ-4 DEB
1 20862U 90081AA  18354.51718730 +.00000301 +00000-0 +37837-3 0  9994
2 20862 098.9315 005.4394 0236755 084.2732 065.6069 13.59756174401177
0 CZ-4 DEB
1 20862U 90081AA  18353.69036645 +.00000304 +00000-0 +38101-3 0  9998
2 20862 098.9315 004.6846 0236757 086.4058 338.2265 13.59755595401068
0 CZ-4 DEB
1 20864U 90081AC  18354.28997969 +.00000177 +00000-0 +14489-3 0  9992
2 20864 099.0363 073.9543 0068632 262.1703 130.8834 14.01206863436189
0 CZ-4 DEB
1 20865U 90081AD  18354.53441251 +.00000805 +00000-0 +22178-3 0  9991
2 20865 098.1395 009.1622 0032166 224.5532 288.4223 14.49133347475351
0 CZ-4 DEB
1 20865U 90081AD  18353.96434744 +.00000795 +00000-0 +21906-3 0  9992
2 20865 098.1395 008.6122 0032145 226.3147 194.4503 14.49132325475272
0 CZ-4 DEB
1 20866U 90081AE  18353.96320449 +.00000237 +00000-0 +16725-3 0  9993
2 20866 098.7299 004.0207 0072192 083.1531 338.4455 14.05633729442779
0 CZ-4 DEB
1 20866U 90081AE  18354.33046802 +.00000214 +00000-0 +15320-3 0  9998
2 20866 098.7299 004.3745 0072200 082.1354 036.8888 14.05633950443092
0 CZ-4 DEB
1 20867U 90081AF  18354.28612663 +.00000047 +00000-0 +53014-4 0  9994
2 20867 098.7691 006.2186 0107239 093.8050 330.8197 14.03953741442485
0 CZ-4 DEB
1 20867U 90081AF  18353.93125219 +.00000022 +00000-0 +38199-4 0  9991
2 20867 098.7691 005.8761 0107253 094.7909 337.2100 14.03953655442432
0 CZ-4 DEB
1 20867U 90081AF  18354.71387574  .00000074  00000-0  69118-4 0  9994
2 20867  98.7690   6.6314 0107223  92.6189 332.7508 14.03953840442818
0 CZ-4 DEB
1 20868U 90081AG  18354.37884562 +.00000028 +00000-0 +63314-4 0  9997
2 20868 098.9992 035.9837 0172137 308.2684 050.3088 13.77756534416215
0 CZ-4 DEB
1 20870U 90081AJ  18354.53549326 +.00000093 +00000-0 +77034-4 0  9990
2 20870 098.7031 003.5606 0034413 175.9306 300.0907 14.09561323447146
0 CZ-4 DEB
1 20870U 90081AJ  18353.95637259 +.00000125 +00000-0 +94847-4 0  9995
2 20870 098.7032 003.0008 0034385 177.5629 241.3954 14.09561127447064
0 SBS 6
1 20872U 90091A   18354.54135608 -.00000133 +00000-0 +00000-0 0  9999
2 20872 008.6329 046.2986 0001383 049.6832 120.9893 00.98991661019013
0 GALAXY 6
1 20873U 90091B   18354.20305473 +.00000111 +00000-0 +00000-0 0  9997
2 20873 012.0991 030.1633 0005303 234.6933 293.2686 00.99760388097496
0 CZ-4 DEB
1 20876U 90081AL  18354.15001920 +.00000283 +00000-0 +12907-3 0  9995
2 20876 098.5422 018.4188 0017527 338.2529 066.7953 14.28837827465820
0 CZ-4 DEB
1 20876U 90081AL  18353.95393730 +.00000279 +00000-0 +12750-3 0  9996
2 20876 098.5422 018.2268 0017533 338.8489 138.1660 14.28837664465520
0 CZ-4 DEB
1 20877U 90081AM  18353.96651626 +.00000775 +00000-0 +21342-3 0  9997
2 20877 098.2771 011.4862 0022613 198.0745 222.2420 14.49429514470592
0 CZ-4 DEB
1 20877U 90081AM  18354.53661782 +.00000790 +00000-0 +21741-3 0  9995
2 20877 098.2770 012.0456 0022637 196.3495 316.9838 14.49430560470672
